NUSAT-1 (FRESCO)        
1 41557U 16033B   22231.60662478  .00011248  00000+0  32274-3 0  9990
2 41557  97.3903 329.4738 0011612 145.6567 339.3870 15.35969168347073
BEESAT-4                
1 41619U 16040W   22231.41274034  .00015774  00000+0  50284-3 0  9992
2 41619  97.2119 280.4061 0007626 244.3197 115.7258 15.32583310330369
CAS-2T & KS-1Q          
1 41847U 16066G   22231.42546085  .00000614  00000+0  10159-3 0  9996
2 41847  98.5466 296.0134 0363823  21.6911 339.9248 14.38695759303409
NAYIF-1 (EO-88)         
1 42017U 17008BX  22231.45144394  .00016246  00000+0  45993-3 0  9995
2 42017  97.2640 296.7108 0005183  38.5320 321.6293 15.36352357306741
ZHUHAI-1 02 (CAS-4B)    
1 42759U 17034B   22231.53196877  .00002957  00000+0  18053-3 0  9990
2 42759  43.0184 344.9111 0010455 322.3751 141.0346 15.12276514285907
ZHUHAI-1 01 (CAS-4A)    
1 42761U 17034D   22231.56594228  .00003184  00000+0  19294-3 0  9999
2 42761  43.0188 343.4641 0010787 324.5350 148.8973 15.12364868285915
MAX VALIER SAT          
1 42778U 17036P   22231.34583819  .00008796  00000+0  32537-3 0  9998
2 42778  97.2011 270.3052 0012603 102.3297 257.9354 15.27843556286507
RADFXSAT (FOX-1B)       
1 43017U 17073E   22231.45084404  .00004547  00000+0  34253-3 0  9991
2 43017  97.6662 123.0566 0246871 341.8772  17.3755 14.81827021256449
FOX-1D (AO-92)          
1 43137U 18004AC  22231.14717918  .00011222  00000+0  38384-3 0  9995
2 43137  97.3648 305.7714 0008768 132.8655 227.3324 15.30387577255936
DIWATA-2B               
1 43678U 18084H   22231.41476596  .00001083  00000+0  11186-3 0  9992
2 43678  97.9796   5.4501 0011321  78.7699 281.4795 14.92262674207240
ES'HAIL 2               
1 43700U 18090A   22231.50707437  .00000138  00000+0  00000+0 0  9995
2 43700   0.0131 111.5633 0002072  82.0351 342.5351  1.00273376 13669
FOX-1CLIFF (AO-95)      
1 43770U 18099N   22231.44001917  .00002396  00000+0  21443-3 0  9990
2 43770  97.6158 296.1509 0015151  67.3031 292.9790 14.96684585202439
ITASAT 1                
1 43786U 18099AE  22231.42786279  .00001360  00000+0  12348-3 0  9990
2 43786  97.6195 297.0912 0016041  60.0378 300.2434 14.96800361202472
JY1SAT (JO-97)          
1 43803U 18099AX  22231.42366773  .00002020  00000+0  17852-3 0  9992
2 43803  97.6157 296.8617 0015951  59.1829 301.0961 14.97353925202494
UWE-4                   
1 43880U 18111E   22231.44462030  .00001864  00000+0  16075-3 0  9998
2 43880  97.6624 136.6526 0013275 104.6488 255.6207 14.98438434199135
NEXUS (FO-99)           
1 43937U 19003F   22231.35739421  .00013662  00000+0  44228-3 0  9993
2 43937  97.1273 262.3016 0017874 289.8639  70.0677 15.31990492199604
PSAT2 (NO-104)          
1 44354U 19036R   22231.33441705  .00058618 -56692-5  46729-3 0  9999
2 44354  28.5249 100.3651 0210085 323.0745  35.5556 15.45623507174401
JAISAT-1                
1 44419U 19038F   22231.46526304  .00008063  00000+0  39674-3 0  9991
2 44419  97.6404 202.1479 0016877 273.6310  86.2993 15.18153932172612
DUCHIFAT-3              
1 44854U 19089C   22231.35900463  .00002686  00000+0  21015-3 0  9995
2 44854  36.9656  87.3186 0008615   2.3752 354.6290 15.01411872147386
CAS-6 (TIANQIN 1)       
1 44881U 19093C   22231.51514564  .00000381  00000+0  54856-4 0  9991
2 44881  97.8911 309.8157 0014607 346.7083  13.3745 14.81787374144118
RS-44 & BREEZE-KM R/B   
1 44909U 19096E   22231.36235858  .00000016  00000+0  18672-4 0  9995
2 44909  82.5231 188.4837 0217421 172.3502 188.1008 12.79714322123555
ORBITAL FACTORY 2 (OF-2)
1 45113U 19071C   22231.35987360  .00030306  00000+0  57033-3 0  9995
2 45113  51.6368 109.2013 0009047  51.0804 309.0989 15.48239726143114
HUSKYSAT-1 (HO-107)     
1 45119U 19071J   22231.28085969  .00027073  00000+0  53390-3 0  9996
2 45119  51.6372 110.1441 0008976  46.5768 313.5966 15.46949336143083
BY70-2                  
1 45857U 20042B   22231.56678113  .00004794  00000+0  63340-3 0  9996
2 45857  97.9535 307.8284 0008754 270.0712  89.9518 14.80447399114795
SALSAT                  
1 46495U 20068K   22231.40802324  .00001832  00000+0  13412-3 0  9994
2 46495  97.7301 172.7449 0017909  66.6223 293.6884 15.04725215103659
BY70-3                  
1 46839U 20079N   22231.53910434  .00020624  00000+0  44805-3 0  9994
2 46839  97.1942 302.8954 0006902 105.3111   9.6151 15.44353655 99971
RADFXSAT-2 (AO-109)     
1 47311U 21002C   22231.05404465  .00011422  00000+0  44442-3 0  9999
2 47311  60.6849 126.4442 0027810  23.0561 337.1769 15.26134746 88011
UVSQ-SAT                
1 47438U 21006AB  22231.11705651  .00007631  00000+0  39644-3 0  9996
2 47438  97.4324 288.8495 0013042  62.4358 297.8198 15.16298544 86776
DIY-1 (ARDUIQUBE)       
1 47963U 21022AH  22231.25379216  .00017712  00000+0  94561-3 0  9996
2 47963  97.5247 131.9359 0013995 277.1552  82.8089 15.15105142 76454
XW-3 (CAS-9)            
1 50466U 21131B   22231.60759206  .00000107  00000+0  49771-4 0  9993
2 50466  98.5782 308.8256 0003657 333.9778  26.1224 14.38516204 33990
TEVEL-3                 
1 50988U 22002E   22231.58797769  .00005615  00000+0  30312-3 0  9992
2 50988  97.4766 297.5307 0009207 196.6452 273.3031 15.15095251 32979
TEVEL-8                 
1 50989U 22002F   22231.40152440  .00005416  00000+0  29301-3 0  9990
2 50989  97.4790 297.3726 0009250 196.0481 297.8984 15.15038477 32946
TEVEL-5                 
1 50998U 22002Q   22231.58799692  .00005800  00000+0  30861-3 0  9995
2 50998  97.4763 297.6598 0010791 193.0519 273.1162 15.15586102 32989
TEVEL-6                 
1 50999U 22002R   22231.58817361  .00005816  00000+0  30941-3 0  9996
2 50999  97.4760 297.6581 0010870 192.8128 277.1779 15.15590537 32985
TEVEL-1                 
1 51013U 22002AF  22231.59052252  .00005517  00000+0  29815-3 0  9991
2 51013  97.4772 297.5122 0009093 196.0615 270.1210 15.15068607 32978
TEVEL-7                 
1 51062U 22002CG  22231.59626988  .00005428  00000+0  29371-3 0  9996
2 51062  97.4781 297.5502 0009192 195.2382 271.0035 15.15032282 32971
TEVEL-4                 
1 51063U 22002CH  22231.60287229  .00005321  00000+0  28806-3 0  9994
2 51063  97.4783 297.5534 0009057 194.8858 302.8824 15.15022083 32979
TEVEL-2                 
1 51069U 22002CP  22231.58859897  .00005588  00000+0  30174-3 0  9999
2 51069  97.4766 297.5173 0009164 196.5448 269.6189 15.15087305 32970
RS3S                    
1 53308U 98067TT  22231.48019867  .00039547  00000+0  64965-3 0  9992
2 53308  51.6425  22.8507 0002191 127.3726 232.7463 15.51999405  4547
RS1S                    
1 53309U 98067TU  22231.47954021  .00040177  00000+0  65855-3 0  9992
2 53309  51.6423  22.8454 0002719 146.6909 213.4253 15.52052432  4498
RS5S                    
1 53310U 98067TV  22231.47970632  .00037752  00000+0  62072-3 0  9993
2 53310  51.6427  22.8475 0002450 148.0132 212.1007 15.51995927  4524
RS6S                    
1 53311U 98067TW  22230.96304105  .00055247  00000+0  89812-3 0  9993
2 53311  51.6420  25.3958 0001976 117.4553 242.6638 15.52143495  4468
RS9S                    
1 53312U 98067TX  22231.02785910  .00052125  00000+0  85019-3 0  9996
2 53312  51.6425  25.0789 0002962 148.7839 211.3327 15.52073844  4416
RS12S                   
1 53313U 98067TY  22230.89828627  .00048140  00000+0  78522-3 0  9997
2 53313  51.6424  25.7141 0002521 154.4250 205.6865 15.52108071  4444
RS4S                    
1 53321U 98067TZ  22231.48064807  .00040512  00000+0  66540-3 0  9996
2 53321  51.6429  22.8549 0002274 136.3949 223.7221 15.51992292  4539
RS29S (SXC3-2110 CYCLO*)
1 53373U 22096D   22231.54386106  .00008357  00000+0  34237-3 0  9997
2 53373  97.4349 132.9351 0003170 117.8044 242.3515 15.24533111  1569
RS32S (SXC3-212 MONITO*)
1 53374U 22096E   22231.54316225  .00008366  00000+0  34166-3 0  9994
2 53374  97.4350 132.9361 0003402 113.1292 247.0304 15.24639420  1563
RS34S (SXC3-218 KUZBAS*)
1 53375U 22096F   22231.60863403  .00006661  00000+0  27257-3 0  9996
2 53375  97.4349 133.0014 0003404 112.4024 247.7574 15.24651875  1571
RS23S (SXC3-21 UTMN)    
1 53376U 22096G   22231.60840900  .00007522  00000+0  30706-3 0  9994
2 53376  97.4350 133.0017 0003400 111.0046 249.1556 15.24690566  1578
RS28S (SXC3-214 MIET-A*)
1 53377U 22096H   22231.54257311  .00007213  00000+0  29433-3 0  9998
2 53377  97.4351 132.9368 0003446 111.0678 249.0929 15.24716263  1563
RS26S (KAI-1)           
1 53378U 22096J   22231.54229951  .00006516  00000+0  26594-3 0  9998
2 53378  97.4349 132.9372 0003457 105.9845 254.1774 15.24751454  1562
RS19S (SXC3-219 ISOI)   
1 53381U 22096M   22231.53961833  .00006972  00000+0  28083-3 0  9994
2 53381  97.4350 132.9407 0005877  67.7875 292.3986 15.25157074  1561
RS21S (CUBESX-HSE-2)    
1 53383U 22096P   22231.53920055  .00007181  00000+0  28862-3 0  9995
2 53383  97.4349 132.9413 0006029  66.8028 293.3844 15.25219243  1569
RS30S (SXC3-217 SIREN)  
1 53384U 22096Q   22231.60464909  .00007100  00000+0  28522-3 0  9999
2 53384  97.4348 133.0067 0006101  65.8274 294.3601 15.25240001  1578
RS20S (GEOSCAN-EDELVEIS)
1 53385U 22096R   22231.53807987  .00008090  00000+0  32300-3 0  9997
2 53385  97.4349 132.9428 0006596  66.2295 293.9634 15.25395574  1594
RS33S (SXC3-215 VIZARD) 
1 53386U 22096S   22231.53669246  .00009571  00000+0  37894-3 0  9990
2 53386  97.4350 132.9446 0007357  65.7433 294.4573 15.25620066  1585
